ISS (ZARYA)             
1 25544U 98067A   25319.38552854  .00013221  00000+0  24188-3 0  9994
2 25544  51.6327 277.8788 0004161  73.2410 286.9034 15.49683527538617
CSS (TIANHE)            
1 48274U 21035A   25319.29381113  .00030872  00000+0  35613-3 0  9994
2 48274  41.4651 183.2460 0003580  32.5918 327.5141 15.61254647259747
ISS (NAUKA)             
1 49044U 21066A   25318.22475630  .00013472  00000+0  24659-3 0  9999
2 49044  51.6329 283.6283 0004194  68.4296 291.7139 15.49650045230448
CSS (WENTIAN)           
1 53239U 22085A   25318.01442622  .00031369  00000+0  36298-3 0  9991
2 53239  41.4648 191.0371 0003883  22.4689 337.6319 15.61166938173847
CSS (MENGTIAN)          
1 54216U 22143A   25318.01442622  .00031369  00000+0  36298-3 0  9992
2 54216  41.4648 191.0371 0003883  22.4689 337.6319 15.61166938158644
SOYUZ-MS 27             
1 63520U 25072A   25318.22475630  .00013472  00000+0  24659-3 0  9995
2 63520  51.6329 283.6283 0004194  68.4296 291.7139 15.49650045 20204
SHENZHOU-20 (SZ-20)     
1 63632U 25082A   25318.01442622  .00031369  00000+0  36298-3 0  9999
2 63632  41.4648 191.0371 0003883  22.4689 337.6319 15.61166938255307
PROGRESS-MS 31          
1 64751U 25146A   25318.22475630  .00013472  00000+0  24659-3 0  9994
2 64751  51.6329 283.6283 0004194  68.4296 291.7139 15.49650045  6755
TIANZHOU-9              
1 64786U 25149A   25318.01442622  .00031369  00000+0  36298-3 0  9994
2 64786  41.4648 191.0371 0003883  22.4689 337.6319 15.61166938255308
CREW DRAGON 11          
1 65077U 25166A   25318.22475630  .00013472  00000+0  24659-3 0  9998
2 65077  51.6329 283.6283 0004194  68.4296 291.7139 15.49650045  2146
DRAGON CRS-33           
1 65304U 25186A   25318.22475630  .00013472  00000+0  24659-3 0  9993
2 65304  51.6329 283.6283 0004194  68.4296 291.7139 15.49650045   114
